STARLINK-37069          
1 68158U 26049S   26083.25002315 -.02031164  00000+0 -96653-2 0  9995
2 68158  97.2760 103.1954 0001592  84.4520 119.2317 15.85812514  2965
STARLINK-37053          
1 68159U 26049T   26083.25002315 -.02031741  00000+0 -96228-2 0  9995
2 68159  97.2759 103.1968 0001512  91.3879 116.1860 15.85910684  2961
STARLINK-36306          
1 68160U 26049U   26083.25002315 -.02034927  00000+0 -95846-2 0  9991
2 68160  97.2752 103.1979 0001559  96.6918 114.6876 15.86028518  2979
STARLINK-37057          
1 68161U 26049V   26083.25002315 -.02035679  00000+0 -97601-2 0  9998
2 68161  97.2758 103.1935 0001738  90.9738 109.0567 15.85662946  2966
STARLINK-37013          
1 68162U 26049W   26083.25002315 -.02065942  00000+0 -96215-2 0  9995
2 68162  97.2746 103.2053 0001623  88.2014 139.3289 15.86307407  2962
STARLINK-36958          
1 68163U 26049X   26083.25002315 -.02052977  00000+0 -96432-2 0  9991
2 68163  97.2750 103.2025 0001481  89.8223 129.8951 15.86114334  2963
STARLINK-37002          
1 68164U 26049Y   26083.25002315 -.02048278  00000+0 -96460-2 0  9992
2 68164  97.2756 103.2006 0001586  94.7682 120.8837 15.86052621  2963
STARLINK-36971          
1 68165U 26049Z   26083.25002315 -.02067794  00000+0 -96677-2 0  9997
2 68165  97.2746 103.2042 0001567  94.1249 129.4287 15.86231868  2961
STARLINK-36273          
1 68166U 26049AA  26083.25002315 -.02070224  00000+0 -95942-2 0  9994
2 68166  97.2747 103.2077 0001570  94.1213 137.2578 15.86415147  2971
STARLINK-36969          
1 68167U 26050A   26083.25002315 -.00029705  00000+0 -14735-3 0  9995
2 68167  53.1595 208.8697 0000668  80.4390  37.0585 15.80892535  2783
STARLINK-36984          
1 68168U 26050B   26083.25002315  .00012072  00000+0  64581-4 0  9998
2 68168  53.1597 208.8611 0001197  72.3767  49.3886 15.80886057  2780
STARLINK-37077          
1 68169U 26050C   26083.25002315 -.00010254  00000+0 -48450-4 0  9998
2 68169  53.1596 208.8520 0001075 115.3465  10.7047 15.80883025  2780
